[
    {
        "Altitude(m)": 617719.7242503025,
        "Argument of Periapsis(deg)": 0.0,
        "Eccentricity": 0.0,
        "Inclination(deg)": 60.0,
        "Latitude(deg)": -41.10251369897581,
        "Longitude(deg)": 130.09458143804653,
        "Mean Anomaly(deg)": 229.09090000000003,
        "RAAN(deg)": 20.0,
        "Satellite Name": "Test1 102",
        "Satellite Number": 102,
        "Semi-Major Axis(m)": 6980739.136638005,
        "Time(s)": 0
    },
    {
        "Altitude(m)": 617911.2603053554,
        "Argument of Periapsis(deg)": 0.00010418945913296404,
        "Eccentricity": 0.0,
        "Inclination(deg)": 60.0,
        "Latitude(deg)": -41.56570635835228,
        "Longitude(deg)": 130.5989859311709,
        "Mean Anomaly(deg)": 229.71100614546188,
        "RAAN(deg)": 19.99957995086026,
        "Satellite Name": "Test1 102",
        "Satellite Number": 102,
        "Semi-Major Axis(m)": 6980739.136638005,
        "Time(s)": 10
    },
    {
        "Altitude(m)": 618101.6711550119,
        "Argument of Periapsis(deg)": 0.0002083789182659281,
        "Eccentricity": 0.0,
        "Inclination(deg)": 60.0,
        "Latitude(deg)": -42.0262205335698,
        "Longitude(deg)": 131.1111977569484,
        "Mean Anomaly(deg)": 230.3311122909237,
        "RAAN(deg)": 19.999159901720517,
        "Satellite Name": "Test1 102",
        "Satellite Number": 102,
        "Semi-Major Axis(m)": 6980739.136638005,
        "Time(s)": 20
    },
    {
        "Altitude(m)": 618290.883771865,
        "Argument of Periapsis(deg)": 0.00031256837739889213,
        "Eccentricity": 0.0,
        "Inclination(deg)": 60.0,
        "Latitude(deg)": -42.48397597852305,
        "Longitude(deg)": 131.63141159972432,
        "Mean Anomaly(deg)": 230.95121843638552,
        "RAAN(deg)": 19.99873985258077,
        "Satellite Name": "Test1 102",
        "Satellite Number": 102,
        "Semi-Major Axis(m)": 6980739.136638005,
        "Time(s)": 30
    },
    {
        "Altitude(m)": 618478.8255057248,
        "Argument of Periapsis(deg)": 0.0004167578365318562,
        "Eccentricity": 0.0,
        "Inclination(deg)": 60.0,
        "Latitude(deg)": -42.93888992207327,
        "Longitude(deg)": 132.15982593752614,
        "Mean Anomaly(deg)": 231.57132458184736,
        "RAAN(deg)": 19.998319803441028,
        "Satellite Name": "Test1 102",
        "Satellite Number": 102,
        "Semi-Major Axis(m)": 6980739.136638005,
        "Time(s)": 40
    },
    {
        "Altitude(m)": 618665.4241152571,
        "Argument of Periapsis(deg)": 0.0005209472956648203,
        "Eccentricity": 0.0,
        "Inclination(deg)": 60.0,
        "Latitude(deg)": -43.39087698993528,
        "Longitude(deg)": 132.69664194415338,
        "Mean Anomaly(deg)": 232.19143072730915,
        "RAAN(deg)": 19.997899754301287,
        "Satellite Name": "Test1 102",
        "Satellite Number": 102,
        "Semi-Major Axis(m)": 6980739.136638005,
        "Time(s)": 50
    },
    {
        "Altitude(m)": 618850.6077994319,
        "Argument of Periapsis(deg)": 0.0006251367547977843,
        "Eccentricity": 0.0,
        "Inclination(deg)": 60.0,
        "Latitude(deg)": -43.83984912592405,
        "Longitude(deg)": 133.24206388438708,
        "Mean Anomaly(deg)": 232.811536872771,
        "RAAN(deg)": 19.997479705161545,
        "Satellite Name": "Test1 102",
        "Satellite Number": 102,
        "Semi-Major Axis(m)": 6980739.136638005,
        "Time(s)": 60
    },
    {
        "Altitude(m)": 619034.3052287704,
        "Argument of Periapsis(deg)": 0.0007293262139307483,
        "Eccentricity": 0.0,
        "Inclination(deg)": 60.0,
        "Latitude(deg)": -44.285715512793196,
        "Longitude(deg)": 133.79629948758296,
        "Mean Anomaly(deg)": 233.43164301823282,
        "RAAN(deg)": 19.9970596560218,
        "Satellite Name": "Test1 102",
        "Satellite Number": 102,
        "Semi-Major Axis(m)": 6980739.136638005,
        "Time(s)": 70
    },
    {
        "Altitude(m)": 619216.4455763423,
        "Argument of Periapsis(deg)": 0.0008335156730637124,
        "Eccentricity": 0.0,
        "Inclination(deg)": 60.0,
        "Latitude(deg)": -44.7283824929289,
        "Longitude(deg)": 134.35955878479004,
        "Mean Anomaly(deg)": 234.05174916369467,
        "RAAN(deg)": 19.99663960688206,
        "Satellite Name": "Test1 102",
        "Satellite Number": 102,
        "Semi-Major Axis(m)": 6980739.136638005,
        "Time(s)": 80
    },
    {
        "Altitude(m)": 619396.9585485376,
        "Argument of Periapsis(deg)": 0.0009377051321966765,
        "Eccentricity": 0.0,
        "Inclination(deg)": 60.0,
        "Latitude(deg)": -45.167753489204216,
        "Longitude(deg)": 134.93205443303034,
        "Mean Anomaly(deg)": 234.67185530915646,
        "RAAN(deg)": 19.996219557742315,
        "Satellite Name": "Test1 102",
        "Satellite Number": 102,
        "Semi-Major Axis(m)": 6980739.136638005,
        "Time(s)": 90
    },
    {
        "Altitude(m)": 619575.7744155658,
        "Argument of Periapsis(deg)": 0.0010418945913296407,
        "Eccentricity": 0.0,
        "Inclination(deg)": 60.0,
        "Latitude(deg)": -45.60372892633669,
        "Longitude(deg)": 135.5140020116468,
        "Mean Anomaly(deg)": 235.2919614546183,
        "RAAN(deg)": 19.995799508602573,
        "Satellite Name": "Test1 102",
        "Satellite Number": 102,
        "Semi-Major Axis(m)": 6980739.136638005,
        "Time(s)": 100
    },
    {
        "Altitude(m)": 619752.8240416931,
        "Argument of Periapsis(deg)": 0.0011460840504626045,
        "Eccentricity": 0.0,
        "Inclination(deg)": 60.0,
        "Latitude(deg)": -46.03620615312971,
        "Longitude(deg)": 136.10561877550091,
        "Mean Anomaly(deg)": 235.91206760008015,
        "RAAN(deg)": 19.99537945946283,
        "Satellite Name": "Test1 102",
        "Satellite Number": 102,
        "Semi-Major Axis(m)": 6980739.136638005,
        "Time(s)": 110
    },
    {
        "Altitude(m)": 619928.0389151989,
        "Argument of Periapsis(deg)": 0.0012502735095955685,
        "Eccentricity": 0.0,
        "Inclination(deg)": 60.0,
        "Latitude(deg)": -46.46507936603462,
        "Longitude(deg)": 136.7071238883096,
        "Mean Anomaly(deg)": 236.53217374554197,
        "RAAN(deg)": 19.99495941032309,
        "Satellite Name": "Test1 102",
        "Satellite Number": 102,
        "Semi-Major Axis(m)": 6980739.136638005,
        "Time(s)": 120
    },
    {
        "Altitude(m)": 620101.3511780335,
        "Argument of Periapsis(deg)": 0.0013544629687285324,
        "Eccentricity": 0.0,
        "Inclination(deg)": 60.0,
        "Latitude(deg)": -46.890239534512496,
        "Longitude(deg)": 137.31873862068466,
        "Mean Anomaly(deg)": 237.1522798910039,
        "RAAN(deg)": 19.994539361183342,
        "Satellite Name": "Test1 102",
        "Satellite Number": 102,
        "Semi-Major Axis(m)": 6980739.136638005,
        "Time(s)": 130
    },
    {
        "Altitude(m)": 620272.6936551755,
        "Argument of Periapsis(deg)": 0.0014586524278614966,
        "Eccentricity": 0.0,
        "Inclination(deg)": 60.0,
        "Latitude(deg)": -47.31157432872876,
        "Longitude(deg)": 137.94068499733984,
        "Mean Anomaly(deg)": 237.77238603646566,
        "RAAN(deg)": 19.9941193120436,
        "Satellite Name": "Test1 102",
        "Satellite Number": 102,
        "Semi-Major Axis(m)": 6980739.136638005,
        "Time(s)": 140
    },
    {
        "Altitude(m)": 620441.9998836534,
        "Argument of Periapsis(deg)": 0.0015628418869944607,
        "Eccentricity": 0.0,
        "Inclination(deg)": 60.0,
        "Latitude(deg)": -47.72896805017713,
        "Longitude(deg)": 138.5731859164608,
        "Mean Anomaly(deg)": 238.3924921819275,
        "RAAN(deg)": 19.99369926290386,
        "Satellite Name": "Test1 102",
        "Satellite Number": 102,
        "Semi-Major Axis(m)": 6980739.136638005,
        "Time(s)": 150
    },
    {
        "Altitude(m)": 620609.2041412689,
        "Argument of Periapsis(deg)": 0.0016670313461274247,
        "Eccentricity": 0.0,
        "Inclination(deg)": 60.0,
        "Latitude(deg)": -48.142301565881965,
        "Longitude(deg)": 139.2164652255395,
        "Mean Anomaly(deg)": 239.0125983273893,
        "RAAN(deg)": 19.99327921376412,
        "Satellite Name": "Test1 102",
        "Satellite Number": 102,
        "Semi-Major Axis(m)": 6980739.136638005,
        "Time(s)": 160
    },
    {
        "Altitude(m)": 620774.2414749195,
        "Argument of Periapsis(deg)": 0.0017712208052603888,
        "Eccentricity": 0.0,
        "Inclination(deg)": 60.0,
        "Latitude(deg)": -48.55145224689642,
        "Longitude(deg)": 139.87074623793316,
        "Mean Anomaly(deg)": 239.63270447285115,
        "RAAN(deg)": 19.992859164624374,
        "Satellite Name": "Test1 102",
        "Satellite Number": 102,
        "Semi-Major Axis(m)": 6980739.136638005,
        "Time(s)": 170
    },
    {
        "Altitude(m)": 620937.0477286496,
        "Argument of Periapsis(deg)": 0.001875410264393353,
        "Eccentricity": 0.0,
        "Inclination(deg)": 60.0,
        "Latitude(deg)": -48.956293911881765,
        "Longitude(deg)": 140.53625171298074,
        "Mean Anomaly(deg)": 240.25281061831296,
        "RAAN(deg)": 19.99243911548463,
        "Satellite Name": "Test1 102",
        "Satellite Number": 102,
        "Semi-Major Axis(m)": 6980739.136638005,
        "Time(s)": 180
    },
    {
        "Altitude(m)": 621097.559571244,
        "Argument of Periapsis(deg)": 0.0019795997235263173,
        "Eccentricity": 0.0,
        "Inclination(deg)": 60.0,
        "Latitude(deg)": -49.35669677662188,
        "Longitude(deg)": 141.21320378390482,
        "Mean Anomaly(deg)": 240.8729167637748,
        "RAAN(deg)": 19.992019066344888,
        "Satellite Name": "Test1 102",
        "Satellite Number": 102,
        "Semi-Major Axis(m)": 6980739.136638005,
        "Time(s)": 190
    }
]